NORAD_CAT_ID,OBJECT_NAME,OBJECT_TYPE,EPOCH,MEAN_MOTION,ECCENTRICITY,INCLINATION,RA_OF_ASC_NODE,ARG_OF_PERICENTER,MEAN_ANOMALY,BSTAR,MEAN_MOTION_DOT,MEAN_MOTION_DDOT,TLE_LINE0,TLE_LINE1,TLE_LINE2,SEMIMAJOR_AXIS,PERIOD,APOGEE,PERIGEE,DECAYED
53577.0,STARLINK-4553,PAYLOAD,2023-03-02 02:19:09,15.08846376,0.0001355,53.2169,328.093,122.777,237.3353,9.4844e-05,1.222e-05,0.0,0 STARLINK-4553,1 53577U 22101BC  23061.09663620  .00001222  00000-0  94844-4 0  9997,2 53577  53.2169 328.0930 0001355 122.7770 237.3353 15.08846376 29847,6917.861,95.437,540.663,538.789,0.0
53577.0,STARLINK-4553,PAYLOAD,2023-03-02 18:13:02,15.08828933,0.0001538,53.2164,325.1218,131.9366,228.1757,0.00052352,8.051e-05,0.0,0 STARLINK-4553,1 53577U 22101BC  23061.75905596  .00008051  00000-0  52352-3 0  9995,2 53577  53.2164 325.1218 0001538 131.9366 228.1757 15.08828933 29941,6917.914,95.438,540.843,538.715,0.0
53577.0,STARLINK-4553,PAYLOAD,2023-03-03 03:45:20,15.08850677,0.000162,53.2168,323.3367,131.0981,229.0151,0.00068857,0.00010691,0.0,0 STARLINK-4553,1 53577U 22101BC  23062.15648616  .00010691  00000-0  68857-3 0  9997,2 53577  53.2168 323.3367 0001620 131.0981 229.0151 15.08850677 30003,6917.848,95.437,540.833,538.592,0.0
53577.0,STARLINK-4553,PAYLOAD,2023-03-03 18:03:48,15.08852169,0.0001853,53.216,320.6598,127.4906,232.6255,0.00019229,2.775e-05,0.0,0 STARLINK-4553,1 53577U 22101BC  23062.75264201  .00002775  00000-0  19229-3 0  9990,2 53577  53.2160 320.6598 0001853 127.4906 232.6255 15.08852169 30918,6917.843,95.437,540.99,538.426,0.0
53577.0,STARLINK-4553,PAYLOAD,2023-03-04 03:36:06,15.08873451,0.000138,53.2162,318.8762,124.2314,235.8809,0.00073279,0.00011404,0.0,0 STARLINK-4553,1 53577U 22101BC  23063.15007246  .00011404  00000-0  73279-3 0  9993,2 53577  53.2162 318.8762 0001380 124.2314 235.8809 15.08873451 30978,6917.778,95.435,540.598,538.688,0.0
53577.0,STARLINK-4553,PAYLOAD,2023-03-04 17:54:35,15.08836125,0.0002112,53.2149,316.197,107.4043,252.718,0.00013838,1.915e-05,0.0,0 STARLINK-4553,1 53577U 22101BC  23063.74624301  .00001915  00000-0  13838-3 0  9996,2 53577  53.2149 316.1970 0002112 107.4043 252.7180 15.08836125 30248,6917.892,95.438,541.218,538.296,0.0
53577.0,STARLINK-4553,PAYLOAD,2023-03-05 00:16:08,15.08832019,6.48e-05,53.2163,315.011,126.3118,233.7934,9.4255e-05,1.212e-05,0.0,0 STARLINK-4553,1 53577U 22101BC  23064.01120466  .00001212  00000-0  94255-4 0  9993,2 53577  53.2163 315.0110 0000648 126.3118 233.7934 15.08832019 30281,6917.905,95.438,540.218,539.322,0.0
53577.0,STARLINK-4553,PAYLOAD,2023-03-05 22:31:32,15.08835811,9.51e-05,53.215,310.8474,82.6357,277.4744,0.00058151,8.978e-05,0.0,0 STARLINK-4553,1 53577U 22101BC  23064.93857321  .00008978  00000-0  58151-3 0  9991,2 53577  53.2150 310.8474 0000951  82.6357 277.4744 15.08835811 31243,6917.893,95.438,540.416,539.1,0.0
53577.0,STARLINK-4553,PAYLOAD,2023-03-06 00:06:55,15.08851678,0.0001047,53.2163,310.5511,72.4846,287.626,0.001133,0.00017795,0.0,0 STARLINK-4553,1 53577U 22101BC  23065.00481274  .00017795  00000-0  11330-2 0  9994,2 53577  53.2163 310.5511 0001047  72.4846 287.6260 15.08851678 30438,6917.845,95.437,540.434,538.985,0.0
53577.0,STARLINK-4553,PAYLOAD,2023-03-06 16:00:47,15.08841038,0.0001095,53.2162,307.5793,69.3044,290.8065,0.000257,3.805e-05,0.0,0 STARLINK-4553,1 53577U 22101BC  23065.66721687  .00003805  00000-0  25700-3 0  9995,2 53577  53.2162 307.5793 0001095  69.3044 290.8065 15.08841038 30532,6917.877,95.437,540.5,538.985,0.0
53577.0,STARLINK-4553,PAYLOAD,2023-03-06 22:22:20,15.08844031,0.0001113,53.2158,306.3896,75.3109,284.8006,0.0006232,9.645e-05,0.0,0 STARLINK-4553,1 53577U 22101BC  23065.93217634  .00009645  00000-0  62320-3 0  9994,2 53577  53.2158 306.3896 0001113  75.3109 284.8006 15.08844031 31397,6917.868,95.437,540.503,538.963,0.0
53577.0,STARLINK-4553,PAYLOAD,2023-03-07 01:33:06,15.08854138,0.0001205,53.2151,305.7931,73.6441,286.4683,0.00074414,0.00011579,0.0,0 STARLINK-4553,1 53577U 22101BC  23066.06465419  .00011579  00000-0  74414-3 0  9991,2 53577  53.2151 305.7931 0001205  73.6441 286.4683 15.08854138 30594,6917.837,95.437,540.536,538.869,0.0
53577.0,STARLINK-4553,PAYLOAD,2023-03-07 15:51:34,15.0884625,0.0001175,53.2169,303.1165,74.7689,285.3433,0.00077448,0.00012061,0.0,0 STARLINK-4553,1 53577U 22101BC  23066.66081470  .00012061  00000-0  77448-3 0  9995,2 53577  53.2169 303.1165 0001175  74.7689 285.3433 15.08846250 30683,6917.861,95.437,540.539,538.913,0.0
53577.0,STARLINK-4553,PAYLOAD,2023-03-07 22:13:06,15.08862704,0.0001378,53.2156,301.9266,92.0523,268.0627,0.0011676,0.00018355,0.0,0 STARLINK-4553,1 53577U 22101BC  23066.92577009  .00018355  00000-0  11676-2 0  9994,2 53577  53.2156 301.9266 0001378  92.0523 268.0627 15.08862704 31543,6917.811,95.436,540.629,538.723,0.0
53577.0,STARLINK-4553,PAYLOAD,2023-03-08 01:23:52,15.08873418,0.0001377,53.2158,301.3315,92.5847,267.5302,0.0012896,0.00020314,0.0,0 STARLINK-4553,1 53577U 22101BC  23067.05824672  .00020314  00000-0  12896-2 0  9993,2 53577  53.2158 301.3315 0001377  92.5847 267.5302 15.08873418 30746,6917.778,95.435,540.596,538.691,0.0
53577.0,STARLINK-4553,PAYLOAD,2023-03-08 15:42:21,15.08853953,0.0002677,53.214,298.6552,93.5538,266.576,0.00087572,0.00013682,0.0,0 STARLINK-4553,1 53577U 22101BC  23067.65441167  .00013682  00000-0  87572-3 0  9997,2 53577  53.2140 298.6552 0002677  93.5538 266.5760 15.08853953 30839,6917.838,95.437,541.555,537.851,0.0
53577.0,STARLINK-4553,PAYLOAD,2023-03-08 22:03:53,15.08845071,0.0002719,53.2127,297.468,90.9308,269.1996,0.00060333,9.328e-05,0.0,0 STARLINK-4553,1 53577U 22101BC  23067.91937479  .00009328  00000-0  60333-3 0  9990,2 53577  53.2127 297.4680 0002719  90.9308 269.1996 15.08845071 31693,6917.865,95.437,541.611,537.849,0.0
53577.0,STARLINK-4553,PAYLOAD,2023-03-09 18:43:54,15.08852646,0.0001242,53.2151,293.6006,74.4609,285.652,0.00088337,0.00013804,0.0,0 STARLINK-4553,1 53577U 22101BC  23068.78049400  .00013804  00000-0  88337-3 0  9992,2 53577  53.2151 293.6006 0001242  74.4609 285.6520 15.08852646 31008,6917.842,95.437,540.566,538.848,0.0
53577.0,STARLINK-4553,PAYLOAD,2023-03-09 21:54:40,15.0886202,0.0001279,53.215,293.0051,67.9991,292.1137,0.0016409,0.00025939,0.0,0 STARLINK-4553,1 53577U 22101BC  23068.91297404  .00025939  00000-0  16409-2 0  9998,2 53577  53.2150 293.0051 0001279  67.9991 292.1137 15.08862020 31848,6917.813,95.436,540.563,538.793,0.0
53577.0,STARLINK-4553,PAYLOAD,2023-03-10 01:05:26,15.08876703,0.000125,53.2153,292.4091,60.2986,299.813,0.0017995,0.00028496,0.0,0 STARLINK-4553,1 53577U 22101BC  23069.04544999  .00028496  00000-0  17995-2 0  9999,2 53577  53.2153 292.4091 0001250  60.2986 299.8130 15.08876703 31049,6917.768,95.435,540.498,538.768,0.0
53577.0,STARLINK-4553,PAYLOAD,2023-03-10 07:26:59,15.08843447,0.0001835,53.2144,291.2202,83.8717,276.2484,0.00040425,6.152e-05,0.0,0 STARLINK-4553,1 53577U 22101BC  23069.31041602  .00006152  00000-0  40425-3 0  9992,2 53577  53.2144 291.2202 0001835  83.8717 276.2484 15.08843447 31086,6917.87,95.437,541.004,538.465,0.0
53577.0,STARLINK-4553,PAYLOAD,2023-03-10 21:45:28,15.08823773,0.0001117,53.2154,288.5465,112.935,247.176,0.00056648,8.735e-05,0.0,0 STARLINK-4553,1 53577U 22101BC  23069.90657913  .00008735  00000-0  56648-3 0  9998,2 53577  53.2154 288.5465 0001117 112.9350 247.1760 15.08823773 31991,6917.93,95.439,540.568,539.022,0.0
53577.0,STARLINK-4553,PAYLOAD,2023-03-11 13:39:19,15.08839689,0.0001169,53.2156,285.5719,109.6677,250.4442,0.00067707,0.00010504,0.0,0 STARLINK-4553,1 53577U 22101BC  23070.56898128  .00010504  00000-0  67707-3 0  9992,2 53577  53.2156 285.5719 0001169 109.6677 250.4442 15.08839689 32093,6917.881,95.438,540.555,538.938,0.0
53577.0,STARLINK-4553,PAYLOAD,2023-03-11 15:14:43,15.08840779,0.0001128,53.2156,285.2742,104.7728,255.3389,0.00065728,0.00010188,0.0,0 STARLINK-4553,1 53577U 22101BC  23070.63522138  .00010188  00000-0  65728-3 0  9994,2 53577  53.2156 285.2742 0001128 104.7728 255.3389 15.08840779 32102,6917.878,95.438,540.523,538.963,0.0
53577.0,STARLINK-4553,PAYLOAD,2023-03-12 00:47:01,15.08855218,0.0001114,53.2149,283.4897,108.1717,251.9397,0.0007983,0.00012445,0.0,0 STARLINK-4553,1 53577U 22101BC  23071.03265732  .00012445  00000-0  79830-3 0  9990,2 53577  53.2149 283.4897 0001114 108.1717 251.9397 15.08855218 31346,6917.834,95.437,540.47,538.928,0.0
53577.0,STARLINK-4553,PAYLOAD,2023-03-12 19:51:39,15.08839604,9.79e-05,53.2152,279.9155,87.7248,272.3856,0.00045257,6.922e-05,0.0,0 STARLINK-4553,1 53577U 22101BC  23071.82754164  .00006922  00000-0  45257-3 0  9998,2 53577  53.2152 279.9155 0000979  87.7248 272.3856 15.08839604 31467,6917.882,95.438,540.424,539.069,0.0
53577.0,STARLINK-4553,PAYLOAD,2023-03-13 13:20:54,15.08835809,0.0001254,53.2145,276.6489,102.5723,257.541,6.2572e-05,7.08e-06,0.0,0 STARLINK-4553,1 53577U 22101BC  23072.55618406  .00000708  00000-0  62572-4 0  9993,2 53577  53.2145 276.6489 0001254 102.5723 257.5410 15.08835809 31570,6917.893,95.438,540.626,538.891,0.0
53577.0,STARLINK-4553,PAYLOAD,2023-03-13 21:17:49,15.08843699,0.0001166,53.2145,275.1622,83.9154,276.1971,0.00017422,2.486e-05,0.0,0 STARLINK-4553,1 53577U 22101BC  23072.88738346  .00002486  00000-0  17422-3 0  9993,2 53577  53.2145 275.1622 0001166  83.9154 276.1971 15.08843699 32447,6917.869,95.437,540.541,538.927,0.0
53577.0,STARLINK-4553,PAYLOAD,2023-03-14 11:36:17,15.08859952,0.0001739,53.2146,272.4858,115.9759,244.1412,0.00054327,8.373e-05,0.0,0 STARLINK-4553,1 53577U 22101BC  23073.48353798  .00008373  00000-0  54327-3 0  9990,2 53577  53.2146 272.4858 0001739 115.9759 244.1412 15.08859952 31715,6917.819,95.436,540.887,538.481,0.0
53577.0,STARLINK-4553,PAYLOAD,2023-03-14 13:11:40,15.08863791,0.0001466,53.2141,272.1894,75.1101,285.0053,0.00060912,9.426e-05,0.0,0 STARLINK-4553,1 53577U 22101BC  23073.54977753  .00009426  00000-0  60912-3 0  9997,2 53577  53.2141 272.1894 0001466  75.1101 285.0053 15.08863791 32545,6917.808,95.436,540.687,538.659,0.0
